OBJECT_NAME,OBJECT_ID,EPOCH,MEAN_MOTION,ECCENTRICITY,INCLINATION,RA_OF_ASC_NODE,ARG_OF_PERICENTER,MEAN_ANOMALY,EPHEMERIS_TYPE,CLASSIFICATION_TYPE,NORAD_CAT_ID,ELEMENT_SET_NO,REV_AT_EPOCH,BSTAR,MEAN_MOTION_DOT,MEAN_MOTION_DDOT
STARLINK-5044,2022-119N,2026-04-16T06:45:22.844160,15.08837713,0.00010693,53.2168,155.0836,88.7724,271.339,0,U,53898,999,19736,-4.76767e-06,-3.64e-06,0.0
STARLINK-5042,2022-119P,2026-04-16T06:00:02.000160,15.33951934,9.289e-05,53.2177,152.9577,102.2588,178.8987,0,U,53899,999,580,0.00075040858,0.00024703,0.0
STARLINK-5045,2022-119Q,2026-04-16T06:34:46.716384,15.08833202,0.00011942,53.2174,155.0373,83.6122,276.5006,0,U,53900,999,19736,-3.4241842e-05,-8.33e-06,0.0
STARLINK-5021,2022-119S,2026-04-16T06:36:06.736608,15.08837853,0.00013144,53.2165,105.1462,83.0997,277.0144,0,U,53902,999,19806,-2.5093551e-05,-6.87e-06,0.0
STARLINK-5022,2022-119T,2026-04-16T03:46:35.998176,15.08846625,0.00010032,53.216,155.7283,58.0829,302.0261,0,U,53903,999,19734,-5.292421e-06,-3.72e-06,0.0
STARLINK-4787,2022-119U,2026-04-16T06:29:27.579840,15.0884088,0.00011647,53.2167,155.0135,90.1827,269.9299,0,U,53904,999,19736,4.3826869e-05,4.1e-06,0.0
STARLINK-5003,2022-119V,2026-04-16T03:04:13.433664,15.08835514,9.632e-05,53.2176,146.2746,82.6654,277.4448,0,U,53905,999,19747,-1.8595754e-05,-5.84e-06,0.0
STARLINK-5054,2022-119W,2026-04-16T06:41:23.289792,15.08881795,0.00010054,53.2158,145.0956,80.4751,279.6354,0,U,53906,999,19750,-0.00069972795,-0.00011419,0.0
STARLINK-5057,2022-119Y,2026-04-15T09:24:21.843936,15.0885085,0.00014189,53.2181,149.4975,71.3497,288.765,0,U,53908,999,19736,-0.00014603327,-2.612e-05,0.0
STARLINK-4796,2022-119Z,2026-04-16T06:20:19.175712,15.08844464,0.00012033,53.2161,145.7037,100.3489,259.7639,0,U,53909,999,19749,5.4169246e-05,5.74e-06,0.0
STARLINK-5048,2022-119AB,2026-04-14T20:46:35.295456,15.08838515,0.00011211,53.2169,151.8985,88.4031,271.709,0,U,53911,999,19728,-8.772506e-06,-4.27e-06,0.0
STARLINK-5059,2022-119AC,2026-04-16T06:30:48.027744,15.08832156,0.0001167,53.2163,145.0491,90.1644,269.9482,0,U,53912,999,19750,1.0094192e-05,-1.27e-06,0.0
STARLINK-5053,2022-119AD,2026-04-15T20:10:50.610720,15.08840673,0.00011449,53.216,147.3251,85.5362,274.576,0,U,53913,999,19743,1.2458083e-05,-9e-07,0.0
STARLINK-5040,2022-119AE,2026-04-16T02:27:05.024736,15.08840366,0.00011534,53.2158,146.1186,86.2975,273.8149,0,U,53914,999,19747,3.3664215e-05,2.48e-06,0.0
STARLINK-5017,2022-119AF,2026-04-16T06:00:02.000160,15.45491511,0.00014794,53.2167,141.3294,65.3578,338.158,0,U,53915,999,576,0.01800718,0.00959842,0.0
STARLINK-5051,2022-119AG,2026-04-16T06:22:50.748096,15.08839552,0.00011788,53.2161,125.0858,85.6459,274.4668,0,U,53916,999,19779,1.2387225e-05,-9.1e-07,0.0
STARLINK-5036,2022-119AH,2026-04-16T06:00:02.000160,15.18719794,0.00015629,53.2175,144.8328,57.4788,349.9101,0,U,53917,999,575,9.1783367e-05,1.611e-05,0.0
STARLINK-5012,2022-119AJ,2026-04-15T20:00:15.320160,15.08839105,9.985e-05,53.2168,147.2816,70.3915,289.7185,0,U,53918,999,19743,-2.7705359e-05,-7.29e-06,0.0
STARLINK-5023,2022-119AK,2026-04-16T02:16:27.457536,15.08842941,0.00016514,53.2154,146.0696,80.9388,279.1791,0,U,53919,999,19747,6.6979467e-05,7.78e-06,0.0
STARLINK-5025,2022-119AL,2026-04-16T05:55:09.046272,15.08837366,0.00011272,53.2153,145.5859,87.6062,272.5059,0,U,53920,999,19749,5.568117e-06,-1.99e-06,0.0
STARLINK-5002,2022-119AN,2026-04-16T06:46:42.798720,15.08836023,0.00010888,53.2167,145.1104,70.6055,289.5055,0,U,53922,999,19750,1.5984271e-05,-3.3e-07,0.0
STARLINK-5004,2022-119AP,2026-04-15T19:49:37.641504,15.08841059,0.00014264,53.2167,147.2367,78.1976,281.9176,0,U,53923,999,19743,1.0414451e-05,-1.22e-06,0.0
STARLINK-5001,2022-119AQ,2026-04-16T05:30:33.437088,15.08841185,0.00011435,53.216,140.5006,86.3582,273.7541,0,U,53924,999,19756,3.1402881e-05,2.12e-06,0.0
STARLINK-5011,2022-119AR,2026-04-16T06:25:29.489952,15.08833693,0.00013861,53.217,145.0278,87.8287,272.2864,0,U,53925,999,19750,2.2099695e-05,6.4e-07,0.0
STARLINK-5014,2022-119AS,2026-04-16T06:00:02.000160,15.23315416,0.00023259,53.2163,139.3313,105.138,205.1846,0,U,53926,999,585,0.00031941002,7.352e-05,0.0
STARLINK-5009,2022-119AU,2026-04-16T05:28:34.377888,15.08836727,0.00013209,53.2158,135.4988,78.7742,281.3398,0,U,53928,999,19763,-1.6688069e-05,-5.53e-06,0.0
STARLINK-5018,2022-119AV,2026-04-16T06:37:37.390080,15.08838032,0.00013393,53.2165,145.7647,71.2022,288.9116,0,U,53929,999,19749,4.2460901e-05,3.88e-06,0.0
STARLINK-5010,2022-119AW,2026-04-16T06:00:02.000160,15.35142075,7.339e-05,53.2176,132.1416,69.522,293.5012,0,U,53930,999,580,0.00046247212,0.00015653,0.0
STARLINK-4772,2022-119AY,2026-04-15T09:13:06.185568,15.08835369,0.00013236,53.2172,134.485,77.3356,282.7784,0,U,53932,999,19758,1.8052961e-05,-1e-08,0.0
STARLINK-4782,2022-119AZ,2026-04-16T05:23:16.638432,15.08829415,0.00011512,53.2161,135.4768,81.6509,278.4614,0,U,53933,999,19763,3.7255942e-05,3.05e-06,0.0
STARLINK-4775,2022-119BA,2026-04-15T09:07:49.715328,15.08830839,0.00015442,53.2171,134.4576,70.5792,289.5367,0,U,53934,999,19759,5.1553602e-05,5.32e-06,0.0
STARLINK-5000,2022-119BB,2026-04-16T06:00:02.000160,15.38485556,0.00010323,53.2168,116.629,97.5031,181.333,0,U,53935,999,582,0.0014933274,0.00057592,0.0
STARLINK-4791,2022-119BC,2026-04-16T06:40:44.691456,15.08844022,0.00011752,53.2163,130.1117,87.1136,272.999,0,U,53936,999,19772,5.128198e-05,5.28e-06,0.0
STARLINK-4633,2022-125A,2026-04-16T06:32:12.315264,15.0883849,0.0001536,53.2184,55.5594,81.798,278.3186,0,U,53964,999,19499,-1.170994e-06,-3.07e-06,0.0
STARLINK-4635,2022-125C,2026-04-16T06:21:37.162080,15.08824778,0.00016322,53.2176,55.5126,83.0414,277.0763,0,U,53966,999,19499,-7.6930513e-05,-1.512e-05,0.0
STARLINK-4634,2022-125D,2026-04-16T06:16:17.203872,15.08842477,0.00015501,53.2178,55.489,87.797,272.32,0,U,53967,999,19499,4.6733145e-05,4.56e-06,0.0
STARLINK-4629,2022-125E,2026-04-16T06:00:22.592736,15.08837519,0.00014448,53.2177,55.4209,88.5165,271.5993,0,U,53968,999,19499,6.625167e-06,-1.83e-06,0.0
STARLINK-4468,2022-125F,2026-04-16T01:24:50.146272,15.08834961,0.00013671,53.2177,56.358,91.3425,268.7724,0,U,53969,999,19496,5.5464749e-05,5.95e-06,0.0
STARLINK-4567,2022-125G,2026-04-16T06:14:19.815648,15.08830852,0.00015564,53.2175,50.5007,91.3839,268.7332,0,U,53970,999,19507,8.4649669e-05,1.059e-05,0.0
STARLINK-5156,2022-125K,2026-04-16T05:55:03.090720,15.08851057,0.00012881,53.2182,55.3988,90.0396,270.0743,0,U,53973,999,19499,0.00013505056,1.863e-05,0.0
STARLINK-5159,2022-125L,2026-04-16T01:59:13.435296,15.08827467,0.00016225,53.2174,35.8574,85.5898,274.5279,0,U,53974,999,19525,0.00013251583,1.821e-05,0.0
STARLINK-5137,2022-125M,2026-04-16T06:46:01.276608,15.08836086,0.00014224,53.2187,49.9391,86.5903,273.5252,0,U,53975,999,19507,1.5605474e-05,-4e-07,0.0
STARLINK-5134,2022-125N,2026-04-16T04:43:34.256928,15.08839971,0.00015115,53.2183,35.8613,96.8217,263.2947,0,U,53976,999,19526,5.4453487e-05,5.79e-06,0.0
STARLINK-5094,2022-125P,2026-04-16T01:38:45.470112,15.08835941,0.00014677,53.2178,51.4313,90.0533,270.0627,0,U,53977,999,19503,-1.926729e-05,-5.95e-06,0.0
STARLINK-5148,2022-125Q,2026-04-16T05:58:22.558080,15.08844299,0.00017344,53.2147,50.4212,98.7312,261.3876,0,U,53978,999,19506,4.5614221e-05,4.38e-06,0.0
STARLINK-5123,2022-125R,2026-04-16T06:08:59.575776,15.08852975,0.00018458,53.2177,50.4685,100.2342,259.8858,0,U,53979,999,19506,5.7156395e-05,6.22e-06,0.0
STARLINK-5133,2022-125S,2026-04-16T05:31:50.842848,15.08843847,0.00013201,53.2178,50.3151,85.787,274.3273,0,U,53980,999,19506,0.00010165743,1.331e-05,0.0
STARLINK-5149,2022-125T,2026-04-16T05:31:11.719200,15.08840514,0.00016526,53.2189,35.3689,84.6094,275.5087,0,U,53981,999,19527,3.4120199e-05,2.55e-06,0.0
STARLINK-5120,2022-125U,2026-04-16T01:26:09.311136,15.08838686,0.00013293,53.218,46.396,86.7092,273.4052,0,U,53982,999,19509,1.4160025e-05,-6.3e-07,0.0
STARLINK-5142,2022-125W,2026-04-16T04:52:51.405600,15.08814945,0.00015721,53.2184,45.8697,91.75,268.3673,0,U,53984,999,19512,0.0002088743,3.036e-05,0.0
STARLINK-5147,2022-125X,2026-04-16T05:03:27.651744,15.08840841,0.00015894,53.2182,45.9156,87.0007,273.1167,0,U,53985,999,19512,2.5720255e-05,1.21e-06,0.0
STARLINK-5119,2022-125Y,2026-04-16T05:20:34.854432,15.08844375,0.00014869,53.218,35.3088,87.5988,272.5175,0,U,53986,999,19526,-1.7325526e-05,-5.64e-06,0.0
STARLINK-5113,2022-125AA,2026-04-16T04:47:34.154304,15.08821654,0.00016394,53.2187,45.8475,94.0948,266.0231,0,U,53988,999,19511,-6.345681e-05,-1.297e-05,0.0
STARLINK-5118,2022-125AD,2026-04-16T01:16:52.409568,15.08835692,0.00016396,53.2196,36.319,85.1642,274.9538,0,U,53991,999,19523,2.1883884e-05,6e-07,0.0
STARLINK-5108,2022-125AE,2026-04-16T01:20:51.772128,15.08834177,0.00014854,53.2197,46.3741,93.2135,266.9027,0,U,53992,999,19509,-0.000167274,-2.949e-05,0.0
STARLINK-5121,2022-125AF,2026-04-16T05:33:10.840608,15.0884266,0.00018426,53.2185,40.3385,88.813,271.3074,0,U,53993,999,19519,2.7653188e-05,1.52e-06,0.0
STARLINK-5125,2022-125AG,2026-04-16T05:51:05.214240,15.08846347,0.00015081,53.22,45.4076,111.1326,248.9827,0,U,53994,999,19513,-1.4723571e-05,-5.22e-06,0.0
STARLINK-5097,2022-125AH,2026-04-16T06:01:42.562848,15.08834993,0.00015266,53.2173,45.4603,88.3261,271.7906,0,U,53995,999,19512,-3.3479035e-05,-8.21e-06,0.0
STARLINK-5131,2022-125AJ,2026-04-16T02:35:00.823488,15.08835421,0.00015695,53.2181,45.9827,88.0302,272.087,0,U,53996,999,19511,7.1480942e-05,8.5e-06,0.0
STARLINK-5130,2022-125AK,2026-04-16T04:59:29.184288,15.08837866,0.00020599,53.2183,35.92,82.5787,277.5439,0,U,53997,999,19526,2.2498996e-05,7e-07,0.0
STARLINK-5128,2022-125AL,2026-04-16T05:35:10.195296,15.08844285,0.00018155,53.2188,45.3422,98.3913,261.7285,0,U,53998,999,19513,3.9548284e-05,3.41e-06,0.0
STARLINK-5079,2022-125AM,2026-04-16T05:56:23.499744,15.08839761,0.00014692,53.2167,45.4318,86.3281,273.7879,0,U,53999,999,19513,2.0737444e-05,4.2e-07,0.0
STARLINK-5088,2022-125AN,2026-04-16T04:54:11.120832,15.08834145,0.00015407,53.2197,35.8974,87.5042,272.6126,0,U,54000,999,19526,1.6774171e-05,-2.1e-07,0.0
